{
  "norad_id": 66962,
  "name": "STARLINK-35874",
  "history": [
    {
      "epoch": "2026-04-15T12:14:53.136672Z",
      "apogee_km": 484.3844126375516,
      "perigee_km": 481.6646482068918,
      "latitude_deg": 2.652678324950503e-05,
      "longitude_deg": 148.5468580490823,
      "height_km": 482.80181866895947,
      "semi_major_axis_km": 6861.161530422221,
      "eccentricity": 0.0001982,
      "inclination_deg": 43.0085,
      "raan_deg": 175.9396,
      "arg_perigee_deg": 270.0344,
      "mean_anomaly_deg": 90.0281,
      "mean_motion_rev_day": 15.27588204
    },
    {
      "epoch": "2026-04-16T13:21:24.160032Z",
      "apogee_km": 484.06278248650506,
      "perigee_km": 482.04147616900445,
      "latitude_deg": 1.8034712174065704e-06,
      "longitude_deg": 124.97819544014996,
      "height_km": 482.71244375090436,
      "semi_major_axis_km": 6861.189129327754,
      "eccentricity": 0.0001473,
      "inclination_deg": 43.0039,
      "raan_deg": 170.0314,
      "arg_perigee_deg": 276.6416,
      "mean_anomaly_deg": 83.4268,
      "mean_motion_rev_day": 15.27578987
    },
    {
      "epoch": "2026-04-17T20:44:31.106688Z",
      "apogee_km": 484.2698918013539,
      "perigee_km": 481.7082217767902,
      "latitude_deg": -5.0677958549122186e-05,
      "longitude_deg": 5.524549967879898,
      "height_km": 482.77166195749095,
      "semi_major_axis_km": 6861.126056789071,
      "eccentricity": 0.00018668,
      "inclination_deg": 43.0033,
      "raan_deg": 162.6457,
      "arg_perigee_deg": 269.7691,
      "mean_anomaly_deg": 90.2946,
      "mean_motion_rev_day": 15.27600051
    },
    {
      "epoch": "2026-04-18T20:16:52.472064Z",
      "apogee_km": 483.98063538691076,
      "perigee_km": 482.078719983856,
      "latitude_deg": 4.351586513490772e-05,
      "longitude_deg": 5.929704769339932,
      "height_km": 482.8857695612197,
      "semi_major_axis_km": 6861.166677685383,
      "eccentricity": 0.0001386,
      "inclination_deg": 43.0015,
      "raan_deg": 157.1065,
      "arg_perigee_deg": 265.2193,
      "mean_anomaly_deg": 94.8501,
      "mean_motion_rev_day": 15.27586485
    },
    {
      "epoch": "2026-04-19T19:49:13.268064Z",
      "apogee_km": 483.21325193025314,
      "perigee_km": 482.7713952018157,
      "latitude_deg": 3.140323099595935e-05,
      "longitude_deg": 6.336123918288909,
      "height_km": 482.55334589286645,
      "semi_major_axis_km": 6861.129323566034,
      "eccentricity": 3.22e-05,
      "inclination_deg": 42.9994,
      "raan_deg": 151.5663,
      "arg_perigee_deg": 14.1101,
      "mean_anomaly_deg": 345.976,
      "mean_motion_rev_day": 15.2759896
    },
    {
      "epoch": "2026-04-20T13:04:56.174304Z",
      "apogee_km": 483.9342506745397,
      "perigee_km": 482.13881878397297,
      "latitude_deg": 1.653054266591097e-05,
      "longitude_deg": 102.63780883280529,
      "height_km": 482.83814038284464,
      "semi_major_axis_km": 6861.173534729256,
      "eccentricity": 0.00013084,
      "inclination_deg": 43.002,
      "raan_deg": 147.5057,
      "arg_perigee_deg": 268.4193,
      "mean_anomaly_deg": 91.6509,
      "mean_motion_rev_day": 15.27584195
    },
    {
      "epoch": "2026-04-21T12:37:18.554016Z",
      "apogee_km": 484.1751872032073,
      "perigee_km": 482.0770129472039,
      "latitude_deg": 4.976793090511784e-06,
      "longitude_deg": 103.03791036541625,
      "height_km": 482.821536898676,
      "semi_major_axis_km": 6861.263100075205,
      "eccentricity": 0.0001529,
      "inclination_deg": 43.0023,
      "raan_deg": 141.9658,
      "arg_perigee_deg": 274.4631,
      "mean_anomaly_deg": 85.6046,
      "mean_motion_rev_day": 15.27554284
    },
    {
      "epoch": "2026-04-22T18:26:16.761120Z",
      "apogee_km": 484.00347920113654,
      "perigee_km": 481.9986546579794,
      "latitude_deg": -3.07712640412334e-05,
      "longitude_deg": 7.554833002573186,
      "height_km": 482.61425409849835,
      "semi_major_axis_km": 6861.138066929558,
      "eccentricity": 0.0001461,
      "inclination_deg": 43.0028,
      "raan_deg": 134.9498,
      "arg_perigee_deg": 279.4096,
      "mean_anomaly_deg": 80.659,
      "mean_motion_rev_day": 15.2759604
    },
    {
      "epoch": "2026-04-23T08:33:40.568256Z",
      "apogee_km": 483.8187051613713,
      "perigee_km": 482.1321065097691,
      "latitude_deg": 2.5220849505667134e-05,
      "longitude_deg": 151.80247262301592,
      "height_km": 482.53225917834203,
      "semi_major_axis_km": 6861.11240583557,
      "eccentricity": 0.00012291,
      "inclination_deg": 43.0025,
      "raan_deg": 131.6266,
      "arg_perigee_deg": 285.1204,
      "mean_anomaly_deg": 74.9512,
      "mean_motion_rev_day": 15.2760461
    },
    {
      "epoch": "2026-04-24T09:40:09.818688Z",
      "apogee_km": 483.9055424562239,
      "perigee_km": 482.0557851340636,
      "latitude_deg": 1.4852987886191437e-05,
      "longitude_deg": 128.2409292033041,
      "height_km": 482.46951776070455,
      "semi_major_axis_km": 6861.117663795143,
      "eccentricity": 0.0001348,
      "inclination_deg": 43.0017,
      "raan_deg": 125.7181,
      "arg_perigee_deg": 288.1415,
      "mean_anomaly_deg": 71.929,
      "mean_motion_rev_day": 15.27602854
    },
    {
      "epoch": "2026-04-25T01:21:43.729632Z",
      "apogee_km": 484.07002255517364,
      "perigee_km": 481.99753730938573,
      "latitude_deg": 2.876926663574959e-05,
      "longitude_deg": -111.48923056672243,
      "height_km": 482.81617982958727,
      "semi_major_axis_km": 6861.170779932279,
      "eccentricity": 0.00015103,
      "inclination_deg": 43.003,
      "raan_deg": 122.0237,
      "arg_perigee_deg": 269.7082,
      "mean_anomaly_deg": 90.3597,
      "mean_motion_rev_day": 15.27585115
    },
    {
      "epoch": "2026-04-26T16:35:38.261184Z",
      "apogee_km": 483.93759624645463,
      "perigee_km": 481.98547649088687,
      "latitude_deg": 4.431621689356345e-05,
      "longitude_deg": 9.191878180362396,
      "height_km": 482.50369753034914,
      "semi_major_axis_km": 6861.0985363686705,
      "eccentricity": 0.00014226,
      "inclination_deg": 43.0017,
      "raan_deg": 112.7932,
      "arg_perigee_deg": 283.9159,
      "mean_anomaly_deg": 76.1535,
      "mean_motion_rev_day": 15.27609242
    },
    {
      "epoch": "2026-04-27T00:26:25.409760Z",
      "apogee_km": 483.5675986987144,
      "perigee_km": 482.52895247169545,
      "latitude_deg": 3.696136157397568e-05,
      "longitude_deg": -110.67312330884972,
      "height_km": 482.76187965552265,
      "semi_major_axis_km": 6861.185275585204,
      "eccentricity": 7.569e-05,
      "inclination_deg": 42.999,
      "raan_deg": 110.9469,
      "arg_perigee_deg": 276.9039,
      "mean_anomaly_deg": 83.1727,
      "mean_motion_rev_day": 15.27580274
    },
    {
      "epoch": "2026-04-28T15:40:20.636832Z",
      "apogee_km": 483.3408815286839,
      "perigee_km": 482.80296274918874,
      "latitude_deg": -2.4739621204715104e-05,
      "longitude_deg": 10.00319806163957,
      "height_km": 482.7278330562628,
      "semi_major_axis_km": 6861.208922138936,
      "eccentricity": 3.92e-05,
      "inclination_deg": 43.0002,
      "raan_deg": 101.7146,
      "arg_perigee_deg": 296.4716,
      "mean_anomaly_deg": 63.6095,
      "mean_motion_rev_day": 15.27572377
    },
    {
      "epoch": "2026-04-29T08:56:03.896448Z",
      "apogee_km": 483.73053677401185,
      "perigee_km": 482.3519888374485,
      "latitude_deg": 2.3526125432327985e-05,
      "longitude_deg": 106.30397564387309,
      "height_km": 482.9142563509165,
      "semi_major_axis_km": 6861.17826280573,
      "eccentricity": 0.00010046,
      "inclination_deg": 43.0017,
      "raan_deg": 97.6545,
      "arg_perigee_deg": 261.9549,
      "mean_anomaly_deg": 98.1189,
      "mean_motion_rev_day": 15.27582616
    },
    {
      "epoch": "2026-04-30T14:45:02.487168Z",
      "apogee_km": 483.4758838867174,
      "perigee_km": 482.58695090656056,
      "latitude_deg": 5.379434852743807e-05,
      "longitude_deg": 10.8148688788325,
      "height_km": 482.4349532481512,
      "semi_major_axis_km": 6861.168417396639,
      "eccentricity": 6.478e-05,
      "inclination_deg": 43.0033,
      "raan_deg": 90.634,
      "arg_perigee_deg": 33.1999,
      "mean_anomaly_deg": 326.8894,
      "mean_motion_rev_day": 15.27585904
    },
    {
      "epoch": "2026-05-02T05:58:56.584992Z",
      "apogee_km": 483.8278746716978,
      "perigee_km": 482.16748007977276,
      "latitude_deg": -3.0264964300025467e-05,
      "longitude_deg": 131.49998114787428,
      "height_km": 482.8417981708204,
      "semi_major_axis_km": 6861.134677375735,
      "eccentricity": 0.000121,
      "inclination_deg": 43.0015,
      "raan_deg": 81.4058,
      "arg_perigee_deg": 265.3417,
      "mean_anomaly_deg": 94.7296,
      "mean_motion_rev_day": 15.27597172
    },
    {
      "epoch": "2026-05-03T21:12:51.728256Z",
      "apogee_km": 483.1338596771093,
      "perigee_km": 482.9046970574127,
      "latitude_deg": 1.588565998683972e-05,
      "longitude_deg": -107.82133790942976,
      "height_km": 482.7526446941454,
      "semi_major_axis_km": 6861.156278367261,
      "eccentricity": 1.67e-05,
      "inclination_deg": 42.9987,
      "raan_deg": 72.1754,
      "arg_perigee_deg": 291.5336,
      "mean_anomaly_deg": 68.5498,
      "mean_motion_rev_day": 15.27589958
    },
    {
      "epoch": "2026-05-04T12:54:25.477632Z",
      "apogee_km": 483.52577507486876,
      "perigee_km": 482.51444051718045,
      "latitude_deg": 5.706725511587252e-05,
      "longitude_deg": 12.449204707244828,
      "height_km": 482.9290590825496,
      "semi_major_axis_km": 6861.157107796024,
      "eccentricity": 7.37e-05,
      "inclination_deg": 43.0026,
      "raan_deg": 68.481,
      "arg_perigee_deg": 254.799,
      "mean_anomaly_deg": 105.2781,
      "mean_motion_rev_day": 15.27589681
    }
  ]
}